NORAD_CAT_ID,OBJECT_NAME,OBJECT_TYPE,EPOCH,MEAN_MOTION,ECCENTRICITY,INCLINATION,RA_OF_ASC_NODE,ARG_OF_PERICENTER,MEAN_ANOMALY,BSTAR,MEAN_MOTION_DOT,MEAN_MOTION_DDOT,TLE_LINE0,TLE_LINE1,TLE_LINE2,SEMIMAJOR_AXIS,PERIOD,APOGEE,PERIGEE,DECAYED
53574.0,STARLINK-4559,PAYLOAD,2023-05-04 11:37:59,15.08836588,0.0001429,53.2198,43.4929,89.1124,271.0032,4.2319e-05,3.86e-06,0.0,0 STARLINK-4559,1 53574U 22101AZ  23124.48471200  .00000386  00000-0  42319-4 0  9998,2 53574  53.2198  43.4929 0001429  89.1124 271.0032 15.08836588 39410,6917.891,95.438,540.744,538.767,0.0
53574.0,STARLINK-4559,PAYLOAD,2023-05-05 03:31:51,15.08823325,0.0001471,53.2192,40.5202,87.1234,272.9926,-4.4418e-05,-9.94e-06,0.0,0 STARLINK-4559,1 53574U 22101AZ  23125.14712959 -.00000994  00000-0 -44418-4 0  9990,2 53574  53.2192  40.5202 0001471  87.1234 272.9926 15.08823325 39511,6917.931,95.439,540.814,538.779,0.0
53574.0,STARLINK-4559,PAYLOAD,2023-05-06 01:47:14,15.08852637,0.0001358,53.2182,36.357,88.9843,271.1305,0.00034805,5.258e-05,0.0,0 STARLINK-4559,1 53574U 22101AZ  23126.07447561  .00005258  00000-0  34805-3 0  9991,2 53574  53.2182  36.3570 0001358  88.9843 271.1305 15.08852637 39655,6917.842,95.437,540.646,538.767,0.0
53574.0,STARLINK-4559,PAYLOAD,2023-05-07 00:02:38,15.08860457,0.0001226,53.2169,32.1931,92.3925,267.7208,0.00049346,7.579e-05,0.0,0 STARLINK-4559,1 53574U 22101AZ  23127.00183175  .00007579  00000-0  49346-3 0  9997,2 53574  53.2169  32.1931 0001226  92.3925 267.7208 15.08860457 39796,6917.818,95.436,540.531,538.835,0.0
53574.0,STARLINK-4559,PAYLOAD,2023-05-07 03:13:24,15.08868158,0.0001336,53.2168,31.5981,89.1607,270.9539,0.00058208,8.995e-05,0.0,0 STARLINK-4559,1 53574U 22101AZ  23127.13430726  .00008995  00000-0  58208-3 0  9998,2 53574  53.2168  31.5981 0001336  89.1607 270.9539 15.08868158 39818,6917.794,95.436,540.584,538.735,0.0
53574.0,STARLINK-4559,PAYLOAD,2023-05-07 20:42:39,15.08842925,0.0001161,53.2167,28.3283,84.9835,275.129,-8.5541e-05,-1.649e-05,0.0,0 STARLINK-4559,1 53574U 22101AZ  23127.86295336 -.00001649  00000-0 -85541-4 0  9996,2 53574  53.2167  28.3283 0001161  84.9835 275.1290 15.08842925 39925,6917.871,95.437,540.54,538.933,0.0
53574.0,STARLINK-4559,PAYLOAD,2023-05-07 22:18:02,15.08842935,0.0001211,53.2167,28.0306,96.3775,263.7355,-8.1263e-05,-1.581e-05,0.0,0 STARLINK-4559,1 53574U 22101AZ  23127.92919290 -.00001581  00000-0 -81263-4 0  9997,2 53574  53.2167  28.0306 0001211  96.3775 263.7355 15.08842935 39931,6917.871,95.437,540.574,538.899,0.0
53574.0,STARLINK-4559,PAYLOAD,2023-05-08 22:08:49,15.08846513,0.0001154,53.2175,23.5692,96.4679,263.6444,0.00011737,1.581e-05,0.0,0 STARLINK-4559,1 53574U 22101AZ  23128.92279128  .00001581  00000-0  11737-3 0  9993,2 53574  53.2175  23.5692 0001154  96.4679 263.6444 15.08846513 40080,6917.86,95.437,540.524,538.927,0.0
53574.0,STARLINK-4559,PAYLOAD,2023-05-08 23:44:12,15.088504,0.0001169,53.2175,23.2719,97.7451,262.3674,0.00020788,3.023e-05,0.0,0 STARLINK-4559,1 53574U 22101AZ  23128.98902980  .00003023  00000-0  20788-3 0  9997,2 53574  53.2175  23.2719 0001169  97.7451 262.3674 15.08850400 40097,6917.849,95.437,540.522,538.905,0.0
53574.0,STARLINK-4559,PAYLOAD,2023-05-09 23:34:59,15.08841814,0.000122,53.2172,18.8131,90.8942,269.219,0.00015607,2.197e-05,0.0,0 STARLINK-4559,1 53574U 22101AZ  23129.98263095  .00002197  00000-0  15607-3 0  9990,2 53574  53.2172  18.8131 0001220  90.8942 269.2190 15.08841814 40244,6917.875,95.437,540.584,538.896,0.0
53574.0,STARLINK-4559,PAYLOAD,2023-05-10 23:25:46,15.0884192,0.0001299,53.218,14.3574,114.8155,245.2973,9.3781e-05,1.205e-05,0.0,0 STARLINK-4559,1 53574U 22101AZ  23130.97623418  .00001205  00000-0  93781-4 0  9999,2 53574  53.2180  14.3574 0001299 114.8155 245.2973 15.08841920 40391,6917.875,95.437,540.638,538.841,0.0
53574.0,STARLINK-4559,PAYLOAD,2023-05-11 23:16:34,15.08836726,9.99e-05,53.2167,9.8929,91.6748,268.4358,3.679e-05,2.98e-06,0.0,0 STARLINK-4559,1 53574U 22101AZ  23131.96983880  .00000298  00000-0  36790-4 0  9999,2 53574  53.2167   9.8929 0000999  91.6748 268.4358 15.08836726 40544,6917.89,95.438,540.446,539.064,0.0
53574.0,STARLINK-4559,PAYLOAD,2023-05-12 23:07:20,15.0885096,0.0001144,53.2174,5.4309,81.6086,278.5036,0.00016092,2.275e-05,0.0,0 STARLINK-4559,1 53574U 22101AZ  23132.96343428  .00002275  00000-0  16092-3 0  9997,2 53574  53.2174   5.4309 0001144  81.6086 278.5036 15.08850960 40690,6917.847,95.437,540.503,538.92,0.0
53574.0,STARLINK-4559,PAYLOAD,2023-05-13 19:47:22,15.08837364,0.0001298,53.2181,1.5593,73.318,286.7954,7.0001e-05,8.26e-06,0.0,0 STARLINK-4559,1 53574U 22101AZ  23133.82456303  .00000826  00000-0  70001-4 0  9991,2 53574  53.2181   1.5593 0001298  73.3180 286.7954 15.08837364 40821,6917.888,95.438,540.651,538.856,0.0
53574.0,STARLINK-4559,PAYLOAD,2023-05-13 21:22:45,15.08839328,0.0001173,53.2173,1.2677,82.9399,277.1726,0.00012351,1.678e-05,0.0,0 STARLINK-4559,1 53574U 22101AZ  23133.89080259  .00001678  00000-0  12351-3 0  9990,2 53574  53.2173   1.2677 0001173  82.9399 277.1726 15.08839328 40836,6917.882,95.438,540.559,538.936,0.0
53574.0,STARLINK-4559,PAYLOAD,2023-05-13 22:58:08,15.08840975,0.0001213,53.2176,0.9707,87.0771,273.036,0.0001524,2.138e-05,0.0,0 STARLINK-4559,1 53574U 22101AZ  23133.95704212  .00002138  00000-0  15240-3 0  9991,2 53574  53.2176   0.9707 0001213  87.0771 273.0360 15.08840975 40844,6917.877,95.437,540.582,538.903,0.0
53574.0,STARLINK-4559,PAYLOAD,2023-05-14 21:13:32,15.08845548,0.0001257,53.2176,356.8088,85.0034,275.1101,8.0363e-05,9.92e-06,0.0,0 STARLINK-4559,1 53574U 22101AZ  23134.88440126  .00000992  00000-0  80363-4 0  9990,2 53574  53.2176 356.8088 0001257  85.0034 275.1101 15.08845548 40989,6917.863,95.437,540.598,538.859,0.0
53574.0,STARLINK-4559,PAYLOAD,2023-05-15 21:04:19,15.08843257,0.0001376,53.2172,352.3474,89.3458,270.7692,0.00014036,1.947e-05,0.0,0 STARLINK-4559,1 53574U 22101AZ  23135.87800247  .00001947  00000-0  14036-3 0  9998,2 53574  53.2172 352.3474 0001376  89.3458 270.7692 15.08843257 41133,6917.87,95.437,540.687,538.784,0.0
53574.0,STARLINK-4559,PAYLOAD,2023-05-16 00:15:05,15.08843975,0.0001383,53.2171,351.7526,89.1387,270.9764,0.00014077,1.953e-05,0.0,0 STARLINK-4559,1 53574U 22101AZ  23136.01048182  .00001953  00000-0  14077-3 0  9999,2 53574  53.2171 351.7526 0001383  89.1387 270.9764 15.08843975 41151,6917.868,95.437,540.69,538.776,0.0
53574.0,STARLINK-4559,PAYLOAD,2023-05-16 20:55:06,15.08839722,9.5e-05,53.2173,347.8872,86.4474,273.6626,2.416e-05,9.7e-07,0.0,0 STARLINK-4559,1 53574U 22101AZ  23136.87160274  .00000097  00000-0  24160-4 0  9993,2 53574  53.2173 347.8872 0000950  86.4474 273.6626 15.08839722 41285,6917.881,95.438,540.403,539.089,0.0
53574.0,STARLINK-4559,PAYLOAD,2023-05-17 20:45:53,15.08838269,0.000117,53.2163,343.4261,95.0428,265.0697,0.00011334,1.516e-05,0.0,0 STARLINK-4559,1 53574U 22101AZ  23137.86520318  .00001516  00000-0  11334-3 0  9997,2 53574  53.2163 343.4261 0001170  95.0428 265.0697 15.08838269 41433,6917.886,95.438,540.56,538.941,0.0
53574.0,STARLINK-4559,PAYLOAD,2023-05-17 23:56:39,15.08839787,0.0001165,53.2164,342.8309,94.0228,266.0898,0.0001232,1.673e-05,0.0,0 STARLINK-4559,1 53574U 22101AZ  23137.99768221  .00001673  00000-0  12320-3 0  9998,2 53574  53.2164 342.8309 0001165  94.0228 266.0898 15.08839787 41453,6917.881,95.438,540.552,538.94,0.0
53574.0,STARLINK-4559,PAYLOAD,2023-05-18 14:15:08,15.08836497,9.04e-05,53.2173,340.1543,91.5984,268.5112,7.17e-06,-1.74e-06,0.0,0 STARLINK-4559,1 53574U 22101AZ  23138.59384817 -.00000174  00000-0  71700-5 0  9995,2 53574  53.2173 340.1543 0000904  91.5984 268.5112 15.08836497 41546,6917.891,95.438,540.381,539.131,0.0
53574.0,STARLINK-4559,PAYLOAD,2023-05-18 22:12:03,15.08840494,9.18e-05,53.2171,338.6675,91.0184,269.0914,3.8054e-05,3.18e-06,0.0,0 STARLINK-4559,1 53574U 22101AZ  23138.92504509  .00000318  00000-0  38054-4 0  9997,2 53574  53.2171 338.6675 0000918  91.0184 269.0914 15.08840494 41597,6917.879,95.438,540.379,539.109,0.0
53574.0,STARLINK-4559,PAYLOAD,2023-05-19 15:41:18,15.08839937,8.77e-05,53.2175,335.3974,95.5813,264.528,9.9438e-05,1.295e-05,0.0,0 STARLINK-4559,1 53574U 22101AZ  23139.65368530  .00001295  00000-0  99438-4 0  9998,2 53574  53.2175 335.3974 0000877  95.5813 264.5280 15.08839937 41708,6917.881,95.438,540.352,539.139,0.0
53574.0,STARLINK-4559,PAYLOAD,2023-05-19 20:27:27,15.08846348,9.28e-05,53.2174,334.5044,105.2929,254.8166,7.9313e-05,9.75e-06,0.0,0 STARLINK-4559,1 53574U 22101AZ  23139.85240164  .00000975  00000-0  79313-4 0  9996,2 53574  53.2174 334.5044 0000928 105.2929 254.8166 15.08846348 41732,6917.861,95.437,540.368,539.084,0.0
53574.0,STARLINK-4559,PAYLOAD,2023-05-20 17:07:28,15.08845927,8.48e-05,53.2175,330.6396,85.5608,274.5481,0.00013134,1.804e-05,0.0,0 STARLINK-4559,1 53574U 22101AZ  23140.71352102  .00001804  00000-0  13134-3 0  9999,2 53574  53.2175 330.6396 0000848  85.5608 274.5481 15.08845927 41860,6917.862,95.437,540.314,539.141,0.0
53574.0,STARLINK-4559,PAYLOAD,2023-05-20 20:18:14,15.08851217,0.0001129,53.2177,330.0442,56.669,303.441,0.00020764,3.019e-05,0.0,0 STARLINK-4559,1 53574U 22101AZ  23140.84599840  .00003019  00000-0  20764-3 0  9992,2 53574  53.2177 330.0442 0001129  56.6690 303.4410 15.08851217 41886,6917.846,95.437,540.492,538.93,0.0
53574.0,STARLINK-4559,PAYLOAD,2023-05-21 05:50:33,15.08837697,0.0001158,53.2167,328.2606,72.7616,287.3502,2.0265e-05,3.5e-07,0.0,0 STARLINK-4559,1 53574U 22101AZ  23141.24344576  .00000035  00000-0  20265-4 0  9993,2 53574  53.2167 328.2606 0001158  72.7616 287.3502 15.08837697 41940,6917.887,95.438,540.554,538.951,0.0
53574.0,STARLINK-4559,PAYLOAD,2023-05-21 12:12:06,15.08835848,0.0001253,53.2144,327.0758,70.3142,289.7986,-1.0018e-05,-4.47e-06,0.0,0 STARLINK-4559,1 53574U 22101AZ  23141.50840802 -.00000447  00000-0 -10018-4 0  9999,2 53574  53.2144 327.0758 0001253  70.3142 289.7986 15.08835848 41986,6917.893,95.438,540.625,538.891,0.0
